{
  "norad_id": 66114,
  "name": "STARLINK-35496",
  "history": [
    {
      "epoch": "2026-03-28T21:52:01.014240",
      "apogee_km": 475.9616414578486,
      "perigee_km": 474.45801716349797,
      "latitude_deg": 0.9296471382580309,
      "longitude_deg": 158.86779359984212,
      "semi_major_axis_km": 6853.346829310673,
      "eccentricity": 0.0001097,
      "inclination_deg": 53.1567,
      "raan_deg": 310.3296,
      "arg_perigee_deg": 65.1875,
      "mean_anomaly_deg": 294.9239,
      "mean_motion_rev_day": 15.30201755
    }
  ]
}